NORAD_CAT_ID,OBJECT_NAME,OBJECT_TYPE,EPOCH,MEAN_MOTION,ECCENTRICITY,INCLINATION,RA_OF_ASC_NODE,ARG_OF_PERICENTER,MEAN_ANOMALY,BSTAR,MEAN_MOTION_DOT,MEAN_MOTION_DDOT,TLE_LINE0,TLE_LINE1,TLE_LINE2,SEMIMAJOR_AXIS,PERIOD,APOGEE,PERIGEE,DECAYED
53854.0,STARLINK-4800,PAYLOAD,2023-09-11 14:02:06,15.08959023,0.0002503,53.2167,49.9725,58.5147,301.6089,-0.0035569,-0.00056639,0.0,0 STARLINK-4800,1 53854U 22114AN  23254.58479479 -.00056639  00000-0 -35569-2 0  9995,2 53854  53.2167  49.9725 0002503  58.5147 301.6089 15.08959023 55714,6917.517,95.43,541.113,537.65,0.0
53854.0,STARLINK-4800,PAYLOAD,2023-09-11 20:23:45,15.08869012,0.0001141,53.2173,48.7823,76.3805,283.7314,0.00056283,8.688e-05,0.0,0 STARLINK-4800,1 53854U 22114AN  23254.84983081  .00008688  00000-0  56283-3 0  9999,2 53854  53.2173  48.7823 0001141  76.3805 283.7314 15.08869012 55217,6917.792,95.436,540.446,538.867,0.0
53854.0,STARLINK-4800,PAYLOAD,2023-09-12 10:42:13,15.08851127,0.0001424,53.2172,46.1063,76.4543,283.6608,7.1965e-05,8.58e-06,0.0,0 STARLINK-4800,1 53854U 22114AN  23255.44599195  .00000858  00000-0  71965-4 0  9991,2 53854  53.2172  46.1063 0001424  76.4543 283.6608 15.08851127 55301,6917.846,95.437,540.696,538.726,0.0
53854.0,STARLINK-4800,PAYLOAD,2023-09-12 13:52:59,15.08847429,0.0001211,53.2172,45.5117,87.0442,273.0689,-1.1663e-05,-4.74e-06,0.0,0 STARLINK-4800,1 53854U 22114AN  23255.57847154 -.00000474  00000-0 -11663-4 0  9991,2 53854  53.2172  45.5117 0001211  87.0442 273.0689 15.08847429 55867,6917.858,95.437,540.56,538.885,0.0
53854.0,STARLINK-4800,PAYLOAD,2023-09-12 17:03:46,15.08851021,0.0001258,53.2174,44.9165,84.3507,275.7629,6.6883e-05,7.77e-06,0.0,0 STARLINK-4800,1 53854U 22114AN  23255.71095043  .00000777  00000-0  66883-4 0  9997,2 53854  53.2174  44.9165 0001258  84.3507 275.7629 15.08851021 55886,6917.847,95.437,540.582,538.841,0.0
53854.0,STARLINK-4800,PAYLOAD,2023-09-13 13:43:46,15.08854195,0.0001241,53.2175,41.0513,77.2192,282.8939,0.00022204,3.249e-05,0.0,0 STARLINK-4800,1 53854U 22114AN  23256.57206461  .00003249  00000-0  22204-3 0  9995,2 53854  53.2175  41.0513 0001241  77.2192 282.8939 15.08854195 56019,6917.837,95.437,540.561,538.843,0.0
53854.0,STARLINK-4800,PAYLOAD,2023-09-13 16:54:32,15.08861262,0.0001256,53.217,40.4577,88.1728,271.9408,0.00035487,5.368e-05,0.0,0 STARLINK-4800,1 53854U 22114AN  23256.70454209  .00005368  00000-0  35487-3 0  9996,2 53854  53.2170  40.4577 0001256  88.1728 271.9408 15.08861262 55493,6917.815,95.436,540.549,538.812,0.0
53854.0,STARLINK-4800,PAYLOAD,2023-09-14 10:23:47,15.08837185,0.0001067,53.2173,37.1859,73.0883,287.0227,-4.9333e-05,-1.073e-05,0.0,0 STARLINK-4800,1 53854U 22114AN  23257.43318998 -.00001073  00000-0 -49333-4 0  9998,2 53854  53.2173  37.1859 0001067  73.0883 287.0227 15.08837185 55604,6917.889,95.438,540.492,539.016,0.0
53854.0,STARLINK-4800,PAYLOAD,2023-09-14 13:34:34,15.08831462,8.93e-05,53.2177,36.5896,67.738,292.3707,-0.0001137,-2.096e-05,0.0,0 STARLINK-4800,1 53854U 22114AN  23257.56567272 -.00002096  00000-0 -11370-3 0  9998,2 53854  53.2177  36.5896 0000893  67.7380 292.3707 15.08831462 56166,6917.906,95.438,540.389,539.154,0.0
53854.0,STARLINK-4800,PAYLOAD,2023-09-14 16:45:20,15.08829403,0.0001256,53.2178,35.9959,76.413,283.7002,-0.00014017,-2.517e-05,0.0,0 STARLINK-4800,1 53854U 22114AN  23257.69815592 -.00002517  00000-0 -14017-3 0  9992,2 53854  53.2178  35.9959 0001256  76.4130 283.7002 15.08829403 55640,6917.913,95.438,540.647,538.909,0.0
53854.0,STARLINK-4800,PAYLOAD,2023-09-15 10:14:35,15.08839708,0.0001036,53.2164,32.7261,73.7141,286.3966,0.00017672,2.526e-05,0.0,0 STARLINK-4800,1 53854U 22114AN  23258.42679602  .00002526  00000-0  17672-3 0  9992,2 53854  53.2164  32.7261 0001036  73.7141 286.3966 15.08839708 55753,6917.881,95.438,540.463,539.03,0.0
53854.0,STARLINK-4800,PAYLOAD,2023-09-15 13:25:21,15.08846117,0.0001208,53.2176,32.1314,75.7825,284.3301,0.00031037,4.656e-05,0.0,0 STARLINK-4800,1 53854U 22114AN  23258.55927407  .00004656  00000-0  31037-3 0  9992,2 53854  53.2176  32.1314 0001208  75.7825 284.3301 15.08846117 56317,6917.862,95.437,540.562,538.891,0.0
53854.0,STARLINK-4800,PAYLOAD,2023-09-15 16:36:07,15.08851123,0.0001245,53.2174,31.5367,69.2117,290.9009,0.0009392,0.00014695,0.0,0 STARLINK-4800,1 53854U 22114AN  23258.69175660  .00014695  00000-0  93920-3 0  9996,2 53854  53.2174  31.5367 0001245  69.2117 290.9009 15.08851123 55791,6917.846,95.437,540.573,538.85,0.0
53854.0,STARLINK-4800,PAYLOAD,2023-09-16 08:29:59,15.08853819,0.0001422,53.2178,28.5638,65.2622,294.8518,0.00067989,0.00010553,0.0,0 STARLINK-4800,1 53854U 22114AN  23259.35415722  .00010553  00000-0  67989-3 0  9991,2 53854  53.2178  28.5638 0001422  65.2622 294.8518 15.08853819 55899,6917.838,95.437,540.687,538.719,0.0
53854.0,STARLINK-4800,PAYLOAD,2023-09-16 13:16:08,15.08855106,0.0001393,53.2173,27.671,64.63,295.4836,0.00068983,0.00010712,0.0,0 STARLINK-4800,1 53854U 22114AN  23259.55287623  .00010712  00000-0  68983-3 0  9992,2 53854  53.2173  27.6710 0001393  64.6300 295.4836 15.08855106 56463,6917.834,95.437,540.663,538.736,0.0
53854.0,STARLINK-4800,PAYLOAD,2023-09-17 08:20:46,15.08854444,0.0001145,53.2188,24.1045,80.7466,279.3656,0.0006954,0.00010801,0.0,0 STARLINK-4800,1 53854U 22114AN  23260.34775565  .00010801  00000-0  69540-3 0  9997,2 53854  53.2188  24.1045 0001145  80.7466 279.3656 15.08854444 56048,6917.836,95.437,540.493,538.909,0.0
53854.0,STARLINK-4800,PAYLOAD,2023-09-17 13:06:55,15.08855922,0.0001255,53.2168,23.2105,91.8431,268.2705,0.00080087,0.00012486,0.0,0 STARLINK-4800,1 53854U 22114AN  23260.54647452  .00012486  00000-0  80087-3 0  9992,2 53854  53.2168  23.2105 0001255  91.8431 268.2705 15.08855922 56617,6917.832,95.437,540.565,538.829,0.0
53854.0,STARLINK-4800,PAYLOAD,2023-09-17 14:42:18,15.08850703,0.0001342,53.2174,22.914,69.2434,290.8702,0.00058942,9.108e-05,0.0,0 STARLINK-4800,1 53854U 22114AN  23260.61271550  .00009108  00000-0  58942-3 0  9994,2 53854  53.2174  22.9140 0001342  69.2434 290.8702 15.08850703 56089,6917.848,95.437,540.641,538.784,0.0
53854.0,STARLINK-4800,PAYLOAD,2023-09-18 01:50:00,15.08850777,0.0001376,53.2173,20.8338,63.8252,296.2882,0.0005415,8.343e-05,0.0,0 STARLINK-4800,1 53854U 22114AN  23261.07639498  .00008343  00000-0  54150-3 0  9991,2 53854  53.2173  20.8338 0001376  63.8252 296.2882 15.08850777 56157,6917.847,95.437,540.664,538.761,0.0
53854.0,STARLINK-4800,PAYLOAD,2023-09-18 12:57:42,15.08848513,0.0001493,53.2186,18.7504,92.112,268.0043,0.00025805,3.822e-05,0.0,0 STARLINK-4800,1 53854U 22114AN  23261.54007403  .00003822  00000-0  25805-3 0  9990,2 53854  53.2186  18.7504 0001493  92.1120 268.0043 15.08848513 56769,6917.854,95.437,540.752,538.687,0.0
53854.0,STARLINK-4800,PAYLOAD,2023-09-18 14:33:05,15.08848,0.0001454,53.2186,18.4533,93.5922,266.5237,0.00024923,3.682e-05,0.0,0 STARLINK-4800,1 53854U 22114AN  23261.60631365  .00003682  00000-0  24923-3 0  9991,2 53854  53.2186  18.4533 0001454  93.5922 266.5237 15.08848000 56231,6917.856,95.437,540.727,538.715,0.0
53854.0,STARLINK-4800,PAYLOAD,2023-09-20 12:39:17,15.08821254,0.0001595,53.2181,9.8284,120.4881,239.6268,-0.0002546,-4.336e-05,0.0,0 STARLINK-4800,1 53854U 22114AN  23263.52728629 -.00004336  00000-0 -25460-3 0  9990,2 53854  53.2181   9.8284 0001595 120.4881 239.6268 15.08821254 56522,6917.938,95.439,540.906,538.699,0.0
53854.0,STARLINK-4800,PAYLOAD,2023-09-20 14:14:40,15.08821221,0.0001318,53.2187,9.5333,103.8473,256.2666,-0.00020083,-3.481e-05,0.0,0 STARLINK-4800,1 53854U 22114AN  23263.59352796 -.00003481  00000-0 -20083-3 0  9991,2 53854  53.2187   9.5333 0001318 103.8473 256.2666 15.08821221 57077,6917.938,95.439,540.715,538.891,0.0
53854.0,STARLINK-4800,PAYLOAD,2023-09-21 10:54:42,15.0883144,0.0001363,53.2188,5.669,111.7734,248.3403,0.00011388,1.525e-05,0.0,0 STARLINK-4800,1 53854U 22114AN  23264.45465420  .00001525  00000-0  11388-3 0  9999,2 53854  53.2188   5.6690 0001363 111.7734 248.3403 15.08831440 56668,6917.907,95.438,540.714,538.829,0.0
53854.0,STARLINK-4800,PAYLOAD,2023-09-21 12:30:05,15.08831918,0.0001359,53.2184,5.3718,111.4462,248.6675,0.00034876,5.266e-05,0.0,0 STARLINK-4800,1 53854U 22114AN  23264.52089592  .00005266  00000-0  34876-3 0  9992,2 53854  53.2184   5.3718 0001359 111.4462 248.6675 15.08831918 57218,6917.905,95.438,540.71,538.83,0.0
53854.0,STARLINK-4800,PAYLOAD,2023-09-22 10:45:28,15.08861828,0.000128,53.218,1.2086,107.8675,252.2457,0.00076176,0.00011863,0.0,0 STARLINK-4800,1 53854U 22114AN  23265.44824945  .00011863  00000-0  76176-3 0  9992,2 53854  53.2180   1.2086 0001280 107.8675 252.2457 15.08861828 56812,6917.814,95.436,540.564,538.793,0.0
53854.0,STARLINK-4800,PAYLOAD,2023-09-22 12:20:51,15.08869143,0.0001271,53.2177,0.9112,106.0548,254.0584,0.00092129,0.00014416,0.0,0 STARLINK-4800,1 53854U 22114AN  23265.51448761  .00014416  00000-0  92129-3 0  9991,2 53854  53.2177   0.9112 0001271 106.0548 254.0584 15.08869143 57364,6917.791,95.436,540.536,538.777,0.0
53854.0,STARLINK-4800,PAYLOAD,2023-09-22 13:56:14,15.08875005,0.000123,53.2177,0.6136,103.2378,256.8751,0.0010957,0.0001721,0.0,0 STARLINK-4800,1 53854U 22114AN  23265.58072583  .00017210  00000-0  10957-2 0  9996,2 53854  53.2177   0.6136 0001230 103.2378 256.8751 15.08875005 56833,6917.773,95.435,540.489,538.788,0.0
53854.0,STARLINK-4800,PAYLOAD,2023-09-23 12:11:38,15.08859192,0.0001164,53.217,356.4485,88.4038,271.7087,0.00024293,3.582e-05,0.0,0 STARLINK-4800,1 53854U 22114AN  23266.50807969  .00003582  00000-0  24293-3 0  9999,2 53854  53.2170 356.4485 0001164  88.4038 271.7087 15.08859192 56970,6917.822,95.436,540.492,538.881,0.0
53854.0,STARLINK-4800,PAYLOAD,2023-09-23 13:47:01,15.08859252,0.0001156,53.2173,356.1511,94.8994,265.213,0.00030022,4.496e-05,0.0,0 STARLINK-4800,1 53854U 22114AN  23266.57431894  .00004496  00000-0  30022-3 0  9998,2 53854  53.2173 356.1511 0001156  94.8994 265.2130 15.08859252 57529,6917.822,95.436,540.486,538.887,0.0
